{
  "type": "FeatureCollection",
  "features": [
    {
      "type": "Feature",
      "properties": {
        "norad_id": 54741,
        "name": "GALAXY 35 (G-35)",
        "group": "intelsat",
        "lat": -0.017598243270261067,
        "lon": -171.5143640551448,
        "alt_km": 35782.90940601515,
        "timestamp": "2025-12-04T13:52:00.116067+00:00",
        "meta_object_name": "GALAXY 35 (G-35)",
        "meta_object_id": "2022-170A",
        "meta_epoch": "2025-12-04T06:26:05.580096",
        "meta_mean_motion": 1.00270619,
        "meta_eccentricity": 0.0002763,
        "meta_inclination": 0.0143,
        "meta_ra_of_asc_node": 352.9174,
        "meta_arg_of_pericenter": 268.1964,
        "meta_mean_anomaly": 175.6421,
        "meta_ephemeris_type": 0,
        "meta_classification_type": "U",
        "meta_norad_cat_id": 54741,
        "meta_element_set_no": 999,
        "meta_rev_at_epoch": 1093,
        "meta_bstar": 0,
        "meta_mean_motion_dot": 0,
        "meta_mean_motion_ddot": 0,
        "tle_line1": "1 54741U 22170A   25338.26812014  .00000000  00000+0  00000+0 0  9996",
        "tle_line2": "2 54741   0.0143 352.9174 0002763 268.1964 175.6421  1.00270619 10931"
      },
      "geometry": {
        "type": "Point",
        "coordinates": [
          -171.5143640551448,
          -0.017598243270261067
        ]
      }
    },
    {
      "type": "Feature",
      "properties": {
        "norad_id": 54742,
        "name": "GALAXY 36 (G-36)",
        "group": "intelsat",
        "lat": -0.028499227232224242,
        "lon": -167.37796488538314,
        "alt_km": 35785.18418030451,
        "timestamp": "2025-12-04T13:52:00.116079+00:00",
        "meta_object_name": "GALAXY 36 (G-36)",
        "meta_object_id": "2022-170B",
        "meta_epoch": "2025-12-04T06:27:12.972096",
        "meta_mean_motion": 1.00270215,
        "meta_eccentricity": 6.388e-05,
        "meta_inclination": 0.0139,
        "meta_ra_of_asc_node": 269.8216,
        "meta_arg_of_pericenter": 342.5817,
        "meta_mean_anomaly": 188.747,
        "meta_ephemeris_type": 0,
        "meta_classification_type": "U",
        "meta_norad_cat_id": 54742,
        "meta_element_set_no": 999,
        "meta_rev_at_epoch": 1081,
        "meta_bstar": 0,
        "meta_mean_motion_dot": -1.69e-06,
        "meta_mean_motion_ddot": 0,
        "tle_line1": "1 54742U 22170B   25338.26890014 -.00000169  00000+0  00000+0 0  9990",
        "tle_line2": "2 54742   0.0139 269.8216 0000638 342.5817 188.7470  1.00270215 10811"
      },
      "geometry": {
        "type": "Point",
        "coordinates": [
          -167.37796488538314,
          -0.028499227232224242
        ]
      }
    },
    {
      "type": "Feature",
      "properties": {
        "norad_id": 57493,
        "name": "GALAXY 37 (G-37)",
        "group": "intelsat",
        "lat": -0.014943243706764243,
        "lon": 154.62448768720805,
        "alt_km": 35788.24719162317,
        "timestamp": "2025-12-04T13:52:00.116090+00:00",
        "meta_object_name": "GALAXY 37 (G-37)",
        "meta_object_id": "2023-112A",
        "meta_epoch": "2025-12-03T16:22:38.540064",
        "meta_mean_motion": 1.00273078,
        "meta_eccentricity": 0.00024793,
        "meta_inclination": 0.0143,
        "meta_ra_of_asc_node": 302.8949,
        "meta_arg_of_pericenter": 316.0904,
        "meta_mean_anomaly": 292.4607,
        "meta_ephemeris_type": 0,
        "meta_classification_type": "U",
        "meta_norad_cat_id": 57493,
        "meta_element_set_no": 999,
        "meta_rev_at_epoch": 858,
        "meta_bstar": 0,
        "meta_mean_motion_dot": 6.5e-07,
        "meta_mean_motion_ddot": 0,
        "tle_line1": "1 57493U 23112A   25337.68239051  .00000065  00000+0  00000+0 0  9990",
        "tle_line2": "2 57493   0.0143 302.8949 0002479 316.0904 292.4607  1.00273078  8587"
      },
      "geometry": {
        "type": "Point",
        "coordinates": [
          154.62448768720805,
          -0.014943243706764243
        ]
      }
    }
  ]
}